[{"OBJECT_NAME":"STARLINK-30290","OBJECT_ID":"2023-141U","EPOCH":"2026-03-09T21:42:48.111264","MEAN_MOTION":15.30188001,"ECCENTRICITY":0.00011985,"INCLINATION":53.1595,"RA_OF_ASC_NODE":282.9306,"ARG_OF_PERICENTER":98.1597,"MEAN_ANOMALY":261.9539,"EPHEMERIS_TYPE":0,"CLASSIFICATION_TYPE":"U","NORAD_CAT_ID":57858,"ELEMENT_SET_NO":999,"REV_AT_EPOCH":14036,"BSTAR":4.41569e-7,"MEAN_MOTION_DOT":-3.46e-6,"MEAN_MOTION_DDOT":0},{"OBJECT_NAME":"COSMOS 1953","OBJECT_ID":"1988-050A","EPOCH":"2026-03-09T18:09:26.993952","MEAN_MOTION":15.28528086,"ECCENTRICITY":0.00124769,"INCLINATION":82.5105,"RA_OF_ASC_NODE":158.18,"ARG_OF_PERICENTER":122.2454,"MEAN_ANOMALY":237.9996,"EPHEMERIS_TYPE":0,"CLASSIFICATION_TYPE":"U","NORAD_CAT_ID":19210,"ELEMENT_SET_NO":999,"REV_AT_EPOCH":3779,"BSTAR":0.00029210954,"MEAN_MOTION_DOT":8.158e-5,"MEAN_MOTION_DDOT":0}]
